[{"OBJECT_NAME":"IRIDIUM 113","OBJECT_ID":"2017-039A","EPOCH":"2026-03-09T21:21:34.497504","MEAN_MOTION":14.34222091,"ECCENTRICITY":0.00022411,"INCLINATION":86.4028,"RA_OF_ASC_NODE":3.6669,"ARG_OF_PERICENTER":81.1883,"MEAN_ANOMALY":278.9567,"EPHEMERIS_TYPE":0,"CLASSIFICATION_TYPE":"U","NORAD_CAT_ID":42803,"ELEMENT_SET_NO":999,"REV_AT_EPOCH":45695,"BSTAR":0.00014821747,"MEAN_MOTION_DOT":4.35e-6,"MEAN_MOTION_DDOT":0},{"OBJECT_NAME":"COSMOS 2251 DEB","OBJECT_ID":"1993-036AAF","EPOCH":"2026-03-08T18:29:08.322144","MEAN_MOTION":14.3845024,"ECCENTRICITY":0.00376852,"INCLINATION":74.0287,"RA_OF_ASC_NODE":204.195,"ARG_OF_PERICENTER":222.1889,"MEAN_ANOMALY":137.6364,"EPHEMERIS_TYPE":0,"CLASSIFICATION_TYPE":"U","NORAD_CAT_ID":34761,"ELEMENT_SET_NO":999,"REV_AT_EPOCH":88886,"BSTAR":0.0010115767,"MEAN_MOTION_DOT":3.088e-5,"MEAN_MOTION_DDOT":0}]
